CCSDS_OMM_VERS = 2.0
CREATION_DATE  = 
ORIGINATOR     = 

OBJECT_NAME    = E-KAGAKU-1
OBJECT_ID      = 1998-067XQ
CENTER_NAME    = EARTH
REF_FRAME      = TEME
TIME_SYSTEM    = UTC
MEAN_ELEMENT_THEORY = SGP/SGP4

EPOCH          = 2026-03-12T04:12:55.847232
MEAN_MOTION    = 15.81324294
ECCENTRICITY   = .0005792
INCLINATION    = 51.6240
RA_OF_ASC_NODE = 44.4659
ARG_OF_PERICENTER = 90.6981
MEAN_ANOMALY   = 269.4685

EPHEMERIS_TYPE = 0
CLASSIFICATION_TYPE = U
NORAD_CAT_ID   = 65943
ELEMENT_SET_NO = 999
REV_AT_EPOCH   = 2389
BSTAR          = .1133E-2
MEAN_MOTION_DOT = .234543E-2
MEAN_MOTION_DDOT = 0

CCSDS_OMM_VERS = 2.0
CREATION_DATE  = 
ORIGINATOR     = 

OBJECT_NAME    = HRC MONOBLOCK CAMERA
OBJECT_ID      = 1998-067XR
CENTER_NAME    = EARTH
REF_FRAME      = TEME
TIME_SYSTEM    = UTC
MEAN_ELEMENT_THEORY = SGP/SGP4

EPOCH          = 2026-03-12T04:40:41.517408
MEAN_MOTION    = 15.62501193
ECCENTRICITY   = .0003762
INCLINATION    = 51.6281
RA_OF_ASC_NODE = 52.8869
ARG_OF_PERICENTER = 103.4656
MEAN_ANOMALY   = 256.6757

EPHEMERIS_TYPE = 0
CLASSIFICATION_TYPE = U
NORAD_CAT_ID   = 66052
ELEMENT_SET_NO = 999
REV_AT_EPOCH   = 2278
BSTAR          = .62436E-3
MEAN_MOTION_DOT = .56559E-3
MEAN_MOTION_DDOT = 0

CCSDS_OMM_VERS = 2.0
CREATION_DATE  = 
ORIGINATOR     = 

OBJECT_NAME    = HTV-X1
OBJECT_ID      = 2025-241A
CENTER_NAME    = EARTH
REF_FRAME      = TEME
TIME_SYSTEM    = UTC
MEAN_ELEMENT_THEORY = SGP/SGP4

EPOCH          = 2026-03-12T04:17:18.358944
MEAN_MOTION    = 15.22858971
ECCENTRICITY   = .0006009
INCLINATION    = 51.6347
RA_OF_ASC_NODE = 61.0069
ARG_OF_PERICENTER = 178.6871
MEAN_ANOMALY   = 181.4123

EPHEMERIS_TYPE = 0
CLASSIFICATION_TYPE = U
NORAD_CAT_ID   = 66174
ELEMENT_SET_NO = 999
REV_AT_EPOCH   = 2133
BSTAR          = .42404E-3
MEAN_MOTION_DOT = .975E-4
MEAN_MOTION_DDOT = 0

CCSDS_OMM_VERS = 2.0
CREATION_DATE  = 
ORIGINATOR     = 

OBJECT_NAME    = SZ-21 MODULE
OBJECT_ID      = 2025-246C
CENTER_NAME    = EARTH
REF_FRAME      = TEME
TIME_SYSTEM    = UTC
MEAN_ELEMENT_THEORY = SGP/SGP4

EPOCH          = 2026-03-11T15:57:45.086688
MEAN_MOTION    = 15.68721611
ECCENTRICITY   = .00012302
INCLINATION    = 41.4734
RA_OF_ASC_NODE = 191.1990
ARG_OF_PERICENTER = 305.0978
MEAN_ANOMALY   = 54.9749

EPHEMERIS_TYPE = 0
CLASSIFICATION_TYPE = U
NORAD_CAT_ID   = 66515
ELEMENT_SET_NO = 999
REV_AT_EPOCH   = 1838
BSTAR          = .36182576E-3
MEAN_MOTION_DOT = .42405E-3
MEAN_MOTION_DDOT = 0

CCSDS_OMM_VERS = 2.0
CREATION_DATE  = 
ORIGINATOR     = 

OBJECT_NAME    = SHENZHOU-22
OBJECT_ID      = 2025-272A
CENTER_NAME    = EARTH
REF_FRAME      = TEME
TIME_SYSTEM    = UTC
MEAN_ELEMENT_THEORY = SGP/SGP4

EPOCH          = 2026-03-11T18:19:03.951552
MEAN_MOTION    = 15.60782980
ECCENTRICITY   = .00067997
INCLINATION    = 41.4661
RA_OF_ASC_NODE = 195.5440
ARG_OF_PERICENTER = 284.6024
MEAN_ANOMALY   = 75.4061

EPHEMERIS_TYPE = 0
CLASSIFICATION_TYPE = U
NORAD_CAT_ID   = 66645
ELEMENT_SET_NO = 999
REV_AT_EPOCH   = 26752
BSTAR          = .34030992E-3
MEAN_MOTION_DOT = .28963E-3
MEAN_MOTION_DDOT = 0

CCSDS_OMM_VERS = 2.0
CREATION_DATE  = 
ORIGINATOR     = 

OBJECT_NAME    = SOYUZ-MS 28
OBJECT_ID      = 2025-275A
CENTER_NAME    = EARTH
REF_FRAME      = TEME
TIME_SYSTEM    = UTC
MEAN_ELEMENT_THEORY = SGP/SGP4

EPOCH          = 2026-03-12T03:49:12.416736
MEAN_MOTION    = 15.48595269
ECCENTRICITY   = .0007984
INCLINATION    = 51.6325
RA_OF_ASC_NODE = 60.1463
ARG_OF_PERICENTER = 183.4136
MEAN_ANOMALY   = 176.6799

EPHEMERIS_TYPE = 0
CLASSIFICATION_TYPE = U
NORAD_CAT_ID   = 66664
ELEMENT_SET_NO = 999
REV_AT_EPOCH   = 55673
BSTAR          = .17667E-3
MEAN_MOTION_DOT = .9166E-4
MEAN_MOTION_DDOT = 0

CCSDS_OMM_VERS = 2.0
CREATION_DATE  = 
ORIGINATOR     = 

OBJECT_NAME    = DUPLEX
OBJECT_ID      = 1998-067XS
CENTER_NAME    = EARTH
REF_FRAME      = TEME
TIME_SYSTEM    = UTC
MEAN_ELEMENT_THEORY = SGP/SGP4

EPOCH          = 2026-03-12T03:42:40.222080
MEAN_MOTION    = 15.56408332
ECCENTRICITY   = .0002551
INCLINATION    = 51.6293
RA_OF_ASC_NODE = 57.1200
ARG_OF_PERICENTER = 122.9949
MEAN_ANOMALY   = 237.1288

EPHEMERIS_TYPE = 0
CLASSIFICATION_TYPE = U
NORAD_CAT_ID   = 66906
ELEMENT_SET_NO = 999
REV_AT_EPOCH   = 1551
BSTAR          = .52373E-3
MEAN_MOTION_DOT = .37391E-3
MEAN_MOTION_DDOT = 0

CCSDS_OMM_VERS = 2.0
CREATION_DATE  = 
ORIGINATOR     = 

OBJECT_NAME    = ISS OBJECT XT
OBJECT_ID      = 1998-067XT
CENTER_NAME    = EARTH
REF_FRAME      = TEME
TIME_SYSTEM    = UTC
MEAN_ELEMENT_THEORY = SGP/SGP4

EPOCH          = 2026-03-12T04:38:03.406272
MEAN_MOTION    = 15.70120533
ECCENTRICITY   = .0004704
INCLINATION    = 51.6250
RA_OF_ASC_NODE = 52.8597
ARG_OF_PERICENTER = 94.7778
MEAN_ANOMALY   = 265.3756

EPHEMERIS_TYPE = 0
CLASSIFICATION_TYPE = U
NORAD_CAT_ID   = 66907
ELEMENT_SET_NO = 999
REV_AT_EPOCH   = 1557
BSTAR          = .13957E-2
MEAN_MOTION_DOT = .175431E-2
MEAN_MOTION_DDOT = 0

CCSDS_OMM_VERS = 2.0
CREATION_DATE  = 
ORIGINATOR     = 

OBJECT_NAME    = ISS OBJECT XU
OBJECT_ID      = 1998-067XU
CENTER_NAME    = EARTH
REF_FRAME      = TEME
TIME_SYSTEM    = UTC
MEAN_ELEMENT_THEORY = SGP/SGP4

EPOCH          = 2026-03-12T04:35:10.207968
MEAN_MOTION    = 15.70253790
ECCENTRICITY   = .000485
INCLINATION    = 51.6251
RA_OF_ASC_NODE = 52.8423
ARG_OF_PERICENTER = 95.5022
MEAN_ANOMALY   = 264.6529

EPHEMERIS_TYPE = 0
CLASSIFICATION_TYPE = U
NORAD_CAT_ID   = 66908
ELEMENT_SET_NO = 999
REV_AT_EPOCH   = 1557
BSTAR          = .13761E-2
MEAN_MOTION_DOT = .173902E-2
MEAN_MOTION_DDOT = 0

CCSDS_OMM_VERS = 2.0
CREATION_DATE  = 
ORIGINATOR     = 

OBJECT_NAME    = SILVERSAT
OBJECT_ID      = 1998-067XV
CENTER_NAME    = EARTH
REF_FRAME      = TEME
TIME_SYSTEM    = UTC
MEAN_ELEMENT_THEORY = SGP/SGP4

EPOCH          = 2026-03-12T04:30:05.692032
MEAN_MOTION    = 15.73352402
ECCENTRICITY   = .0005428
INCLINATION    = 51.6249
RA_OF_ASC_NODE = 52.0679
ARG_OF_PERICENTER = 93.6368
MEAN_ANOMALY   = 266.5252

EPHEMERIS_TYPE = 0
CLASSIFICATION_TYPE = U
NORAD_CAT_ID   = 66909
ELEMENT_SET_NO = 999
REV_AT_EPOCH   = 1558
BSTAR          = .15879E-2
MEAN_MOTION_DOT = .230471E-2
MEAN_MOTION_DDOT = 0

CCSDS_OMM_VERS = 2.0
CREATION_DATE  = 
ORIGINATOR     = 

OBJECT_NAME    = ISS OBJECT XW
OBJECT_ID      = 1998-067XW
CENTER_NAME    = EARTH
REF_FRAME      = TEME
TIME_SYSTEM    = UTC
MEAN_ELEMENT_THEORY = SGP/SGP4

EPOCH          = 2026-03-12T04:32:16.405728
MEAN_MOTION    = 15.69385850
ECCENTRICITY   = .0005328
INCLINATION    = 51.6248
RA_OF_ASC_NODE = 52.8254
ARG_OF_PERICENTER = 101.1641
MEAN_ANOMALY   = 258.9956

EPHEMERIS_TYPE = 0
CLASSIFICATION_TYPE = U
NORAD_CAT_ID   = 66910
ELEMENT_SET_NO = 999
REV_AT_EPOCH   = 1557
BSTAR          = .13074E-2
MEAN_MOTION_DOT = .159057E-2
MEAN_MOTION_DDOT = 0

CCSDS_OMM_VERS = 2.0
CREATION_DATE  = 
ORIGINATOR     = 

OBJECT_NAME    = ISS OBJECT XX
OBJECT_ID      = 1998-067XX
CENTER_NAME    = EARTH
REF_FRAME      = TEME
TIME_SYSTEM    = UTC
MEAN_ELEMENT_THEORY = SGP/SGP4

EPOCH          = 2026-03-12T04:18:18.825120
MEAN_MOTION    = 15.76798851
ECCENTRICITY   = .0006998
INCLINATION    = 51.6228
RA_OF_ASC_NODE = 51.2413
ARG_OF_PERICENTER = 99.7488
MEAN_ANOMALY   = 260.4302

EPHEMERIS_TYPE = 0
CLASSIFICATION_TYPE = U
NORAD_CAT_ID   = 66911
ELEMENT_SET_NO = 999
REV_AT_EPOCH   = 1558
BSTAR          = .16961E-2
MEAN_MOTION_DOT = .288232E-2
MEAN_MOTION_DDOT = 0

